"{\n    \"CCSDS_OMM_VERS\": \"2.0\",\n    \"COMMENT\": \"GENERATED VIA SPACE-TRACK.ORG API\",\n    \"CREATION_DATE\": \"2025-08-31T02:26:50\",\n    \"ORIGINATOR\": \"18 SPCS\",\n    \"OBJECT_NAME\": \"BEIDOU 3M14\",\n    \"OBJECT_ID\": \"2018-072B\",\n    \"CENTER_NAME\": \"EARTH\",\n    \"REF_FRAME\": \"TEME\",\n    \"TIME_SYSTEM\": \"UTC\",\n    \"MEAN_ELEMENT_THEORY\": \"SGP4\",\n    \"EPOCH\": \"2025-08-30T21:48:30.180960\",\n    \"MEAN_MOTION\": \"1.8623139607\",\n    \"ECCENTRICITY\": \"0.00038657439\",\n    \"INCLINATION\": \"56.368688\",\n    \"RA_OF_ASC_NODE\": \"72.250056\",\n    \"ARG_OF_PERICENTER\": \"16.48641\",\n    \"MEAN_ANOMALY\": \"343.58418\",\n    \"EPHEMERIS_TYPE\": \"0\",\n    \"CLASSIFICATION_TYPE\": \"U\",\n    \"NORAD_CAT_ID\": \"43623\",\n    \"ELEMENT_SET_NO\": \"999\",\n    \"REV_AT_EPOCH\": \"4724\",\n    \"BSTAR\": \"0\",\n    \"MEAN_MOTION_DOT\": \"-0.000000167866\",\n    \"MEAN_MOTION_DDOT\": \"0\",\n    \"TLE_LINE0\": \"0 BEIDOU 3M14\",\n    \"TLE_LINE1\": \"1 43623U 18072B   25242.90868265 -.00000017  00000-0  00000-0 0  9994\",\n    \"TLE_LINE2\": \"2 43623  56.3687  72.2501 0003866  16.4864 343.5842  1.86231396 47249\",\n    \"SEMIMAJOR_AXIS\": \"27906.149\",\n    \"PERIOD\": \"773.232\",\n    \"APOAPSIS\": \"21538.802\",\n    \"PERIAPSIS\": \"21517.226\",\n    \"OBJECT_TYPE\": \"PAYLOAD\",\n    \"DECAYED\": \"0\"\n}"